GUOWANG GROUP 20 OBJECT*
1 68137U 26047J   26088.24973303 -.00000122  00000+0  19245-4 0  9999
2 68137  50.0061 350.8887 0000982 211.4979 148.5862 13.93924120  2314
CZ-8A R/B               
1 68138U 26047K   26090.26898491 -.00000118  00000+0  19336-4 0  9995
2 68138  49.9536 341.4425 0044753 212.4196 147.3960 14.12232362  2609
SHIYAN-30 03            
1 68139U 26048A   26090.25658618  .00003628  00000+0  35609-3 0  9999
2 68139  35.0015  14.8146 0002872  20.5725 339.5095 14.91742138  2722
SHIYAN-30 04            
1 68140U 26048B   26090.25728002  .00003504  00000+0  34387-3 0  9991
2 68140  34.9930  14.8147 0001378  16.6610 343.4140 14.91750093  2722
CZ-2D R/B               
1 68141U 26048C   26090.21270722  .00002365  00000+0  21139-3 0  9994
2 68141  35.1310  14.8008 0015297 155.7970 204.3460 14.95573365  2722
STARLINK-36604          
1 68142U 26049A   26090.25002315 -.01896130  00000+0 -13304-1 0  9998
2 68142  97.2836 110.5744 0001382  98.9626 246.4170 15.77270413  4098
STARLINK-36995          
1 68143U 26049B   26090.12430142  .00121201  00000+0  62301-3 0  9998
2 68143  97.2834 110.4445 0001271  85.9128 274.2286 15.80876630  2793
STARLINK-37020          
1 68144U 26049C   26090.12279905  .00164325  00000+0  83961-3 0  9996
2 68144  97.2834 110.4466 0001407 118.0131 242.1279 15.80893083  2797
STARLINK-36244          
1 68145U 26049D   26090.25002315  .00067969  00000+0  45388-3 0  9997
2 68145  97.2840 110.5522 0001655  86.2672 208.9534 15.75141557  4095
STARLINK-36980          
1 68146U 26049E   26090.12204705  .00100753  00000+0  51927-3 0  9996
2 68146  97.2839 110.4475 0001289  86.6559 273.4856 15.80875824  2797
STARLINK-37055          
1 68147U 26049F   26090.12355016  .00171996  00000+0  87772-3 0  9993
2 68147  97.2833 110.4450 0001463 116.4925 243.6493 15.80899935  2793
STARLINK-36981          
1 68148U 26049G   26090.24714663  .00211715  00000+0  10755-2 0  9994
2 68148  97.2839 110.5827 0000950  61.1303 299.0061 15.80895531  2812
