CCSDS_OMM_VERS = 2.0
CREATION_DATE  = 
ORIGINATOR     = 

OBJECT_NAME    = GUOWANG GROUP 20 OBJECT J
OBJECT_ID      = 2026-047J
CENTER_NAME    = EARTH
REF_FRAME      = TEME
TIME_SYSTEM    = UTC
MEAN_ELEMENT_THEORY = SGP/SGP4

EPOCH          = 2026-03-29T05:59:36.933792
MEAN_MOTION    = 13.93924120
ECCENTRICITY   = .00009825
INCLINATION    = 50.0061
RA_OF_ASC_NODE = 350.8887
ARG_OF_PERICENTER = 211.4979
MEAN_ANOMALY   = 148.5862

EPHEMERIS_TYPE = 0
CLASSIFICATION_TYPE = U
NORAD_CAT_ID   = 68137
ELEMENT_SET_NO = 999
REV_AT_EPOCH   = 231
BSTAR          = .19244539E-4
MEAN_MOTION_DOT = -.122E-5
MEAN_MOTION_DDOT = 0

CCSDS_OMM_VERS = 2.0
CREATION_DATE  = 
ORIGINATOR     = 

OBJECT_NAME    = CZ-8A R/B
OBJECT_ID      = 2026-047K
CENTER_NAME    = EARTH
REF_FRAME      = TEME
TIME_SYSTEM    = UTC
MEAN_ELEMENT_THEORY = SGP/SGP4

EPOCH          = 2026-03-31T06:27:20.296224
MEAN_MOTION    = 14.12232362
ECCENTRICITY   = .00447535
INCLINATION    = 49.9536
RA_OF_ASC_NODE = 341.4425
ARG_OF_PERICENTER = 212.4196
MEAN_ANOMALY   = 147.3960

EPHEMERIS_TYPE = 0
CLASSIFICATION_TYPE = U
NORAD_CAT_ID   = 68138
ELEMENT_SET_NO = 999
REV_AT_EPOCH   = 260
BSTAR          = .1933627E-4
MEAN_MOTION_DOT = -.118E-5
MEAN_MOTION_DDOT = 0

CCSDS_OMM_VERS = 2.0
CREATION_DATE  = 
ORIGINATOR     = 

OBJECT_NAME    = SHIYAN-30 03
OBJECT_ID      = 2026-048A
CENTER_NAME    = EARTH
REF_FRAME      = TEME
TIME_SYSTEM    = UTC
MEAN_ELEMENT_THEORY = SGP/SGP4

EPOCH          = 2026-03-31T06:09:29.045952
MEAN_MOTION    = 14.91742138
ECCENTRICITY   = .00028722
INCLINATION    = 35.0015
RA_OF_ASC_NODE = 14.8146
ARG_OF_PERICENTER = 20.5725
MEAN_ANOMALY   = 339.5095

EPHEMERIS_TYPE = 0
CLASSIFICATION_TYPE = U
NORAD_CAT_ID   = 68139
ELEMENT_SET_NO = 999
REV_AT_EPOCH   = 272
BSTAR          = .35609084E-3
MEAN_MOTION_DOT = .3628E-4
MEAN_MOTION_DDOT = 0

CCSDS_OMM_VERS = 2.0
CREATION_DATE  = 
ORIGINATOR     = 

OBJECT_NAME    = SHIYAN-30 04
OBJECT_ID      = 2026-048B
CENTER_NAME    = EARTH
REF_FRAME      = TEME
TIME_SYSTEM    = UTC
MEAN_ELEMENT_THEORY = SGP/SGP4

EPOCH          = 2026-03-31T06:10:28.993728
MEAN_MOTION    = 14.91750093
ECCENTRICITY   = .00013783
INCLINATION    = 34.9930
RA_OF_ASC_NODE = 14.8147
ARG_OF_PERICENTER = 16.6610
MEAN_ANOMALY   = 343.4140

EPHEMERIS_TYPE = 0
CLASSIFICATION_TYPE = U
NORAD_CAT_ID   = 68140
ELEMENT_SET_NO = 999
REV_AT_EPOCH   = 272
BSTAR          = .34386534E-3
MEAN_MOTION_DOT = .3504E-4
MEAN_MOTION_DDOT = 0

CCSDS_OMM_VERS = 2.0
CREATION_DATE  = 
ORIGINATOR     = 

OBJECT_NAME    = CZ-2D R/B
OBJECT_ID      = 2026-048C
CENTER_NAME    = EARTH
REF_FRAME      = TEME
TIME_SYSTEM    = UTC
MEAN_ELEMENT_THEORY = SGP/SGP4

EPOCH          = 2026-03-31T05:06:17.903808
MEAN_MOTION    = 14.95573365
ECCENTRICITY   = .00152971
INCLINATION    = 35.1310
RA_OF_ASC_NODE = 14.8008
ARG_OF_PERICENTER = 155.7970
MEAN_ANOMALY   = 204.3460

EPHEMERIS_TYPE = 0
CLASSIFICATION_TYPE = U
NORAD_CAT_ID   = 68141
ELEMENT_SET_NO = 999
REV_AT_EPOCH   = 272
BSTAR          = .21139469E-3
MEAN_MOTION_DOT = .2365E-4
MEAN_MOTION_DDOT = 0

CCSDS_OMM_VERS = 2.0
CREATION_DATE  = 
ORIGINATOR     = 

OBJECT_NAME    = STARLINK-36604
OBJECT_ID      = 2026-049A
CENTER_NAME    = EARTH
REF_FRAME      = TEME
TIME_SYSTEM    = UTC
MEAN_ELEMENT_THEORY = SGP/SGP4

EPOCH          = 2026-03-31T06:00:02.000160
MEAN_MOTION    = 15.77270413
ECCENTRICITY   = .00013826
INCLINATION    = 97.2836
RA_OF_ASC_NODE = 110.5744
ARG_OF_PERICENTER = 98.9626
MEAN_ANOMALY   = 246.4170

EPHEMERIS_TYPE = 0
CLASSIFICATION_TYPE = U
NORAD_CAT_ID   = 68142
ELEMENT_SET_NO = 999
REV_AT_EPOCH   = 409
BSTAR          = -.13303736E-1
MEAN_MOTION_DOT = -.189613E-1
MEAN_MOTION_DDOT = 0

CCSDS_OMM_VERS = 2.0
CREATION_DATE  = 
ORIGINATOR     = 

OBJECT_NAME    = STARLINK-36995
OBJECT_ID      = 2026-049B
CENTER_NAME    = EARTH
REF_FRAME      = TEME
TIME_SYSTEM    = UTC
MEAN_ELEMENT_THEORY = SGP/SGP4

EPOCH          = 2026-03-31T02:58:59.642688
MEAN_MOTION    = 15.80876630
ECCENTRICITY   = .00012714
INCLINATION    = 97.2834
RA_OF_ASC_NODE = 110.4445
ARG_OF_PERICENTER = 85.9128
MEAN_ANOMALY   = 274.2286

EPHEMERIS_TYPE = 0
CLASSIFICATION_TYPE = U
NORAD_CAT_ID   = 68143
ELEMENT_SET_NO = 999
REV_AT_EPOCH   = 279
BSTAR          = .62301472E-3
MEAN_MOTION_DOT = .121201E-2
MEAN_MOTION_DDOT = 0

CCSDS_OMM_VERS = 2.0
CREATION_DATE  = 
ORIGINATOR     = 

OBJECT_NAME    = STARLINK-37020
OBJECT_ID      = 2026-049C
CENTER_NAME    = EARTH
REF_FRAME      = TEME
TIME_SYSTEM    = UTC
MEAN_ELEMENT_THEORY = SGP/SGP4

EPOCH          = 2026-03-31T02:56:49.837920
MEAN_MOTION    = 15.80893083
ECCENTRICITY   = .0001407
INCLINATION    = 97.2834
RA_OF_ASC_NODE = 110.4466
ARG_OF_PERICENTER = 118.0131
MEAN_ANOMALY   = 242.1279

EPHEMERIS_TYPE = 0
CLASSIFICATION_TYPE = U
NORAD_CAT_ID   = 68144
ELEMENT_SET_NO = 999
REV_AT_EPOCH   = 279
BSTAR          = .83960948E-3
MEAN_MOTION_DOT = .164325E-2
MEAN_MOTION_DDOT = 0

CCSDS_OMM_VERS = 2.0
CREATION_DATE  = 
ORIGINATOR     = 

OBJECT_NAME    = STARLINK-36244
OBJECT_ID      = 2026-049D
CENTER_NAME    = EARTH
REF_FRAME      = TEME
TIME_SYSTEM    = UTC
MEAN_ELEMENT_THEORY = SGP/SGP4

EPOCH          = 2026-03-31T06:00:02.000160
MEAN_MOTION    = 15.75141557
ECCENTRICITY   = .00016557
INCLINATION    = 97.2840
RA_OF_ASC_NODE = 110.5522
ARG_OF_PERICENTER = 86.2672
MEAN_ANOMALY   = 208.9534

EPHEMERIS_TYPE = 0
CLASSIFICATION_TYPE = U
NORAD_CAT_ID   = 68145
ELEMENT_SET_NO = 999
REV_AT_EPOCH   = 409
BSTAR          = .45388196E-3
MEAN_MOTION_DOT = .67969E-3
MEAN_MOTION_DDOT = 0

CCSDS_OMM_VERS = 2.0
CREATION_DATE  = 
ORIGINATOR     = 

OBJECT_NAME    = STARLINK-36980
OBJECT_ID      = 2026-049E
CENTER_NAME    = EARTH
REF_FRAME      = TEME
TIME_SYSTEM    = UTC
MEAN_ELEMENT_THEORY = SGP/SGP4

EPOCH          = 2026-03-31T02:55:44.865120
MEAN_MOTION    = 15.80875824
ECCENTRICITY   = .0001289
INCLINATION    = 97.2839
RA_OF_ASC_NODE = 110.4475
ARG_OF_PERICENTER = 86.6559
MEAN_ANOMALY   = 273.4856

EPHEMERIS_TYPE = 0
CLASSIFICATION_TYPE = U
NORAD_CAT_ID   = 68146
ELEMENT_SET_NO = 999
REV_AT_EPOCH   = 279
BSTAR          = .51926522E-3
MEAN_MOTION_DOT = .100753E-2
MEAN_MOTION_DDOT = 0

CCSDS_OMM_VERS = 2.0
CREATION_DATE  = 
ORIGINATOR     = 

OBJECT_NAME    = STARLINK-37055
OBJECT_ID      = 2026-049F
CENTER_NAME    = EARTH
REF_FRAME      = TEME
TIME_SYSTEM    = UTC
MEAN_ELEMENT_THEORY = SGP/SGP4

EPOCH          = 2026-03-31T02:57:54.733824
MEAN_MOTION    = 15.80899935
ECCENTRICITY   = .00014636
INCLINATION    = 97.2833
RA_OF_ASC_NODE = 110.4450
ARG_OF_PERICENTER = 116.4925
MEAN_ANOMALY   = 243.6493

EPHEMERIS_TYPE = 0
CLASSIFICATION_TYPE = U
NORAD_CAT_ID   = 68147
ELEMENT_SET_NO = 999
REV_AT_EPOCH   = 279
BSTAR          = .8777181E-3
MEAN_MOTION_DOT = .171996E-2
MEAN_MOTION_DDOT = 0

CCSDS_OMM_VERS = 2.0
CREATION_DATE  = 
ORIGINATOR     = 

OBJECT_NAME    = STARLINK-36981
OBJECT_ID      = 2026-049G
CENTER_NAME    = EARTH
REF_FRAME      = TEME
TIME_SYSTEM    = UTC
MEAN_ELEMENT_THEORY = SGP/SGP4

EPOCH          = 2026-03-31T05:55:53.468832
MEAN_MOTION    = 15.80895531
ECCENTRICITY   = .00009508
INCLINATION    = 97.2839
RA_OF_ASC_NODE = 110.5827
ARG_OF_PERICENTER = 61.1303
MEAN_ANOMALY   = 299.0061

EPHEMERIS_TYPE = 0
CLASSIFICATION_TYPE = U
NORAD_CAT_ID   = 68148
ELEMENT_SET_NO = 999
REV_AT_EPOCH   = 281
BSTAR          = .10755187E-2
MEAN_MOTION_DOT = .211715E-2
MEAN_MOTION_DDOT = 0

